start=new Date('2022-01-03T00:00:00.000Z').valueOf();
sats=[{"MEAN_ELEMENT_THEORY":"SGP4","MEAN_ANOMALY":"270.9713","LAUNCH_DATE":"2020-03-18","SITE":"AFETR","TLE_LINE1":"1 45374U 20019Q   22002.72167544  .00000390  00000-0  45083-4 0  9993","RCS_SIZE":"LARGE","CENTER_NAME":"EARTH","GP_ID":"192941143","FILE":"3255249","OBJECT_NAME":"STARLINK-1300","MEAN_MOTION":"15.06391876","INCLINATION":"53.0532","APOAPSIS":"548.980","TLE_LINE2":"2 45374  53.0532 181.4470 0002515  89.1564 270.9713 15.06391876 99580","COUNTRY_CODE":"US","CLASSIFICATION_TYPE":"U","MEAN_MOTION_DDOT":"0.0000000000000","REV_AT_EPOCH":"9958","ARG_OF_PERICENTER":"89.1564","TIME_SYSTEM":"UTC","RA_OF_ASC_NODE":"181.4470","PERIOD":"95.593","SEMIMAJOR_AXIS":"6925.373","OBJECT_ID":"2020-019Q","EPOCH":"2022-01-02T17:19:12.758016","DECAY_DATE":null,"NORAD_CAT_ID":"45374","REF_FRAME":"TEME","EPHEMERIS_TYPE":"0","ELEMENT_SET_NO":"999","PERIAPSIS":"545.497","OBJECT_TYPE":"PAYLOAD","BSTAR":"0.00004508300000","MEAN_MOTION_DOT":"0.00000390","ECCENTRICITY":"0.00025150"},{"MEAN_MOTION_DDOT":"0.0000000000000","REV_AT_EPOCH":"9959","ARG_OF_PERICENTER":"87.2153","COUNTRY_CODE":"US","CLASSIFICATION_TYPE":"U","APOAPSIS":"548.821","TLE_LINE2":"2 45375  53.0541 181.0903 0002259  87.2153 272.9095 15.06385906 99599","INCLINATION":"53.0541","MEAN_MOTION":"15.06385906","GP_ID":"192941393","FILE":"3255249","OBJECT_NAME":"STARLINK-1302","RCS_SIZE":"LARGE","CENTER_NAME":"EARTH","SITE":"AFETR","TLE_LINE1":"1 45375U 20019R   22002.80276901  .00000592  00000-0  58675-4 0  9996","MEAN_ELEMENT_THEORY":"SGP4","MEAN_ANOMALY":"272.9095","LAUNCH_DATE":"2020-03-18","MEAN_MOTION_DOT":"0.00000592","BSTAR":"0.00005867500000","ECCENTRICITY":"0.00022590","PERIAPSIS":"545.692","OBJECT_TYPE":"PAYLOAD","ELEMENT_SET_NO":"999","NORAD_CAT_ID":"45375","REF_FRAME":"TEME","EPHEMERIS_TYPE":"0","EPOCH":"2022-01-02T19:15:59.242464","DECAY_DATE":null,"TIME_SYSTEM":"UTC","PERIOD":"95.593","RA_OF_ASC_NODE":"181.0903","SEMIMAJOR_AXIS":"6925.392","OBJECT_ID":"2020-019R"},{"COUNTRY_CODE":"US","CLASSIFICATION_TYPE":"U","MEAN_MOTION_DDOT":"0.0000000000000","REV_AT_EPOCH":"9960","ARG_OF_PERICENTER":"86.1850","INCLINATION":"53.0541","MEAN_MOTION":"15.06392530","APOAPSIS":"548.709","TLE_LINE2":"2 45376  53.0541 180.7075 0002126  86.1850 273.9382 15.06392530 99604","RCS_SIZE":"LARGE","CENTER_NAME":"EARTH","GP_ID":"192942645","FILE":"3255249","OBJECT_NAME":"STARLINK-1304","MEAN_ANOMALY":"273.9382","MEAN_ELEMENT_THEORY":"SGP4","LAUNCH_DATE":"2020-03-18","SITE":"AFETR","TLE_LINE1":"1 45376U 20019S   22002.88754912  .00001073  00000-0  90948-4 0  9992","MEAN_MOTION_DOT":"0.00001073","ECCENTRICITY":"0.00021260","BSTAR":"0.00009094800000","ELEMENT_SET_NO":"999","OBJECT_TYPE":"PAYLOAD","PERIAPSIS":"545.764","NORAD_CAT_ID":"45376","REF_FRAME":"TEME","EPHEMERIS_TYPE":"0","TIME_SYSTEM":"UTC","SEMIMAJOR_AXIS":"6925.371","PERIOD":"95.593","RA_OF_ASC_NODE":"180.7075","OBJECT_ID":"2020-019S","EPOCH":"2022-01-02T21:18:04.243968","DECAY_DATE":null},{"MEAN_MOTION":"15.06392854","INCLINATION":"53.0530","APOAPSIS":"548.882","TLE_LINE2":"2 45377  53.0530 181.1790 0002378  89.7449 270.3812 15.06392854 99590","COUNTRY_CODE":"US","CLASSIFICATION_TYPE":"U","MEAN_MOTION_DDOT":"0.0000000000000","ARG_OF_PERICENTER":"89.7449","REV_AT_EPOCH":"9959","LAUNCH_DATE":"2020-03-18","MEAN_ELEMENT_THEORY":"SGP4","MEAN_ANOMALY":"270.3812","SITE":"AFETR","TLE_LINE1":"1 45377U 20019T   22002.78065212  .00000533  00000-0  54728-4 0  9996","RCS_SIZE":"LARGE","CENTER_NAME":"EARTH","FILE":"3255249","GP_ID":"192942394","OBJECT_NAME":"STARLINK-1305","ELEMENT_SET_NO":"999","PERIAPSIS":"545.589","OBJECT_TYPE":"PAYLOAD","MEAN_MOTION_DOT":"0.00000533","ECCENTRICITY":"0.00023780","BSTAR":"0.00005472800000","PERIOD":"95.593","SEMIMAJOR_AXIS":"6925.370","RA_OF_ASC_NODE":"181.1790","TIME_SYSTEM":"UTC","OBJECT_ID":"2020-019T","EPOCH":"2022-01-02T18:44:08.343168","DECAY_DATE":null,"REF_FRAME":"TEME","NORAD_CAT_ID":"45377","EPHEMERIS_TYPE":"0"},{"EPHEMERIS_TYPE":"0","NORAD_CAT_ID":"45378","REF_FRAME":"TEME","DECAY_DATE":null,"EPOCH":"2022-01-02T16:52:40.561536","OBJECT_ID":"2020-019U","TIME_SYSTEM":"UTC","PERIOD":"95.593","SEMIMAJOR_AXIS":"6925.370","RA_OF_ASC_NODE":"181.5380","ECCENTRICITY":"0.00023320","MEAN_MOTION_DOT":"0.00000485","BSTAR":"0.00005147100000","PERIAPSIS":"545.620","OBJECT_TYPE":"PAYLOAD","ELEMENT_SET_NO":"999","OBJECT_NAME":"STARLINK-1310","GP_ID":"192941644","FILE":"3255249","CENTER_NAME":"EARTH","RCS_SIZE":"LARGE","TLE_LINE1":"1 45378U 20019U   22002.70324724  .00000485  00000-0  51471-4 0  9993","SITE":"AFETR","MEAN_ANOMALY":"273.5419","MEAN_ELEMENT_THEORY":"SGP4","LAUNCH_DATE":"2020-03-18","REV_AT_EPOCH":"9958","ARG_OF_PERICENTER":"86.5836","MEAN_MOTION_DDOT":"0.0000000000000","CLASSIFICATION_TYPE":"U","COUNTRY_CODE":"US","TLE_LINE2":"2 45378  53.0542 181.5380 0002332  86.5836 273.5419 15.06392861 99583","APOAPSIS":"548.850","MEAN_MOTION":"15.06392861","INCLINATION":"53.0542"},{"ELEMENT_SET_NO":"999","PERIAPSIS":"545.582","OBJECT_TYPE":"PAYLOAD","MEAN_MOTION_DOT":"0.00000563","BSTAR":"0.00005672300000","ECCENTRICITY":"0.00023660","PERIOD":"95.592","RA_OF_ASC_NODE":"180.6202","SEMIMAJOR_AXIS":"6925.355","TIME_SYSTEM":"UTC","OBJECT_ID":"2020-019V","EPOCH":"2022-01-02T21:44:35.385504","DECAY_DATE":null,"REF_FRAME":"TEME","NORAD_CAT_ID":"45379","EPHEMERIS_TYPE":"0","MEAN_MOTION":"15.06397764","INCLINATION":"53.0531","APOAPSIS":"548.859","TLE_LINE2":"2 45379  53.0531 180.6202 0002366  85.3078 274.8181 15.06397764 99618","COUNTRY_CODE":"US","CLASSIFICATION_TYPE":"U","MEAN_MOTION_DDOT":"0.0000000000000","ARG_OF_PERICENTER":"85.3078","REV_AT_EPOCH":"9961","LAUNCH_DATE":"2020-03-18","MEAN_ANOMALY":"274.8181","MEAN_ELEMENT_THEORY":"SGP4","SITE":"AFETR","TLE_LINE1":"1 45379U 20019V   22002.90596511  .00000563  00000-0  56723-4 0  9993","RCS_SIZE":"LARGE","CENTER_NAME":"EARTH","GP_ID":"192941894","FILE":"3255249","OBJECT_NAME":"STARLINK-1319"},{"RCS_SIZE":"LARGE","CENTER_NAME":"EARTH","FILE":"3255249","GP_ID":"192942145","OBJECT_NAME":"STARLINK-1207","MEAN_ANOMALY":"257.5854","MEAN_ELEMENT_THEORY":"SGP4","LAUNCH_DATE":"2020-03-18","SITE":"AFETR","TLE_LINE1":"1 45380U 20019W   22002.90411626 -.00000599  00000-0 -21361-4 0  9999","COUNTRY_CODE":"US","CLASSIFICATION_TYPE":"U","MEAN_MOTION_DDOT":"0.0000000000000","REV_AT_EPOCH":"9988","ARG_OF_PERICENTER":"102.5247","MEAN_MOTION":"15.06395989","INCLINATION":"53.0524","APOAPSIS":"547.914","TLE_LINE2":"2 45380  53.0524 160.6286 0000993 102.5247 257.5854 15.06395989 99887","NORAD_CAT_ID":"45380","REF_FRAME":"TEME","EPHEMERIS_TYPE":"0","TIME_SYSTEM":"UTC","PERIOD":"95.592","SEMIMAJOR_AXIS":"6925.361","RA_OF_ASC_NODE":"160.6286","OBJECT_ID":"2020-019W","EPOCH":"2022-01-02T21:41:55.644864","DECAY_DATE":null,"ECCENTRICITY":"0.00009930","MEAN_MOTION_DOT":"-0.00000599","BSTAR":"-0.00002136100000","ELEMENT_SET_NO":"999","PERIAPSIS":"546.538","OBJECT_TYPE":"PAYLOAD"},{"TIME_SYSTEM":"UTC","PERIOD":"95.593","SEMIMAJOR_AXIS":"6925.366","RA_OF_ASC_NODE":"161.1666","OBJECT_ID":"2020-019X","EPOCH":"2022-01-02T18:46:46.743744","DECAY_DATE":null,"NORAD_CAT_ID":"45381","REF_FRAME":"TEME","EPHEMERIS_TYPE":"0","ELEMENT_SET_NO":"999","OBJECT_TYPE":"PAYLOAD","PERIAPSIS":"545.557","ECCENTRICITY":"0.00024180","MEAN_MOTION_DOT":"-0.00000619","BSTAR":"-0.00002266700000","MEAN_ELEMENT_THEORY":"SGP4","MEAN_ANOMALY":"263.9851","LAUNCH_DATE":"2020-03-18","SITE":"AFETR","TLE_LINE1":"1 45381U 20019X   22002.78248546 -.00000619  00000-0 -22667-4 0  9998","RCS_SIZE":"LARGE","CENTER_NAME":"EARTH","FILE":"3255249","GP_ID":"192942895","OBJECT_NAME":"STARLINK-1258","MEAN_MOTION":"15.06394286","INCLINATION":"53.0528","APOAPSIS":"548.906","TLE_LINE2":"2 45381  53.0528 161.1666 0002418  96.1414 263.9851 15.06394286 99863","COUNTRY_CODE":"US","CLASSIFICATION_TYPE":"U","MEAN_MOTION_DDOT":"0.0000000000000","REV_AT_EPOCH":"9986","ARG_OF_PERICENTER":"96.1414"},{"MEAN_MOTION_DOT":"-0.00002850","BSTAR":"-0.00017240000000","ECCENTRICITY":"0.00034120","OBJECT_TYPE":"PAYLOAD","PERIAPSIS":"544.845","ELEMENT_SET_NO":"999","EPHEMERIS_TYPE":"0","REF_FRAME":"TEME","NORAD_CAT_ID":"45382","DECAY_DATE":null,"EPOCH":"2022-01-02T16:39:23.671872","OBJECT_ID":"2020-019Y","RA_OF_ASC_NODE":"161.5795","PERIOD":"95.592","SEMIMAJOR_AXIS":"6925.343","TIME_SYSTEM":"UTC","ARG_OF_PERICENTER":"122.3432","REV_AT_EPOCH":"9967","MEAN_MOTION_DDOT":"0.0000000000000","CLASSIFICATION_TYPE":"U","COUNTRY_CODE":"US","TLE_LINE2":"2 45382  53.0556 161.5795 0003412 122.3432 237.7888 15.06401940 99673","APOAPSIS":"549.571","MEAN_MOTION":"15.06401940","INCLINATION":"53.0556","OBJECT_NAME":"STARLINK-1264","GP_ID":"192941144","FILE":"3255249","CENTER_NAME":"EARTH","RCS_SIZE":"LARGE","TLE_LINE1":"1 45382U 20019Y   22002.69402398 -.00002850  00000-0 -17240-3 0  9995","SITE":"AFETR","LAUNCH_DATE":"2020-03-18","MEAN_ELEMENT_THEORY":"SGP4","MEAN_ANOMALY":"237.7888"},{"GP_ID":"192941394","FILE":"3255249","OBJECT_NAME":"STARLINK-1266","RCS_SIZE":"LARGE","CENTER_NAME":"EARTH","SITE":"AFETR","TLE_LINE1":"1 45383U 20019Z   22002.64240511  .00000749  00000-0  69206-4 0  9991","MEAN_ANOMALY":"266.0079","MEAN_ELEMENT_THEORY":"SGP4","LAUNCH_DATE":"2020-03-18","MEAN_MOTION_DDOT":"0.0000000000000","REV_AT_EPOCH":"9984","ARG_OF_PERICENTER":"94.1183","COUNTRY_CODE":"US","CLASSIFICATION_TYPE":"U","APOAPSIS":"548.851","TLE_LINE2":"2 45383  53.0550 161.7923 0002393  94.1183 266.0079 15.06406520 99844","INCLINATION":"53.0550","MEAN_MOTION":"15.06406520","NORAD_CAT_ID":"45383","REF_FRAME":"TEME","EPHEMERIS_TYPE":"0","EPOCH":"2022-01-02T15:25:03.801504","DECAY_DATE":null,"TIME_SYSTEM":"UTC","SEMIMAJOR_AXIS":"6925.329","PERIOD":"95.592","RA_OF_ASC_NODE":"161.7923","OBJECT_ID":"2020-019Z","ECCENTRICITY":"0.00023930","MEAN_MOTION_DOT":"0.00000749","BSTAR":"0.00006920600000","PERIAPSIS":"545.536","OBJECT_TYPE":"PAYLOAD","ELEMENT_SET_NO":"999"}];
